{
    "links": {
        "self": "http://www.neowsapp.com/rest/v1/neo/54075586?api_key=iIulBulltgU6a56xZRHN4H3l9WmuAYTsLGpBGhQ2"
    },
    "id": "54075586",
    "neo_reference_id": "54075586",
    "name": "(2020 UQ2)",
    "designation": "2020 UQ2",
    "nasa_jpl_url": "http://ssd.jpl.nasa.gov/sbdb.cgi?sstr=54075586",
    "absolute_magnitude_h": 21.768,
    "estimated_diameter": {
        "kilometers": {
            "estimated_diameter_min": 0.1177483897,
            "estimated_diameter_max": 0.2632934037
        },
        "meters": {
            "estimated_diameter_min": 117.7483897209,
            "estimated_diameter_max": 263.293403657
        },
        "miles": {
            "estimated_diameter_min": 0.0731654347,
            "estimated_diameter_max": 0.1636028855
        },
        "feet": {
            "estimated_diameter_min": 386.3136269318,
            "estimated_diameter_max": 863.8235304541
        }
    },
    "is_potentially_hazardous_asteroid": false,
    "close_approach_data": [
        {
            "close_approach_date": "2020-10-12",
            "close_approach_date_full": "2020-Oct-12 05:58",
            "epoch_date_close_approach": 1602482280000,
            "relative_velocity": {
                "kilometers_per_second": "29.1851774029",
                "kilometers_per_hour": "105066.6386506052",
                "miles_per_hour": "65284.3233326497"
            },
            "miss_distance": {
                "astronomical": "0.1077614358",
                "lunar": "41.9191985262",
                "kilometers": "16120881.263821746",
                "miles": "10017051.1205062548"
            },
            "orbiting_body": "Earth"
        }
    ],
    "orbital_data": {
        "orbit_id": "6",
        "orbit_determination_date": "2020-10-28 06:42:16",
        "first_observation_date": "2020-10-19",
        "last_observation_date": "2020-10-28",
        "data_arc_in_days": 9,
        "observations_used": 91,
        "orbit_uncertainty": "8",
        "minimum_orbit_intersection": ".102491",
        "jupiter_tisserand_invariant": "2.899",
        "epoch_osculation": "2459145.5",
        "eccentricity": ".8547793357574494",
        "semi_major_axis": "2.354320628808627",
        "inclination": "9.15693119040739",
        "ascending_node_longitude": "240.2042582671846",
        "orbital_period": "1319.461852972606",
        "perihelion_distance": ".3418960055555283",
        "perihelion_argument": "24.57867059547998",
        "aphelion_distance": "4.366745252061725",
        "perihelion_time": "2459092.083679365584",
        "mean_anomaly": "14.57402909001645",
        "mean_motion": ".272838505477789",
        "equinox": "J2000",
        "orbit_class": {
            "orbit_class_type": "APO",
            "orbit_class_description": "Near-Earth asteroid orbits which cross the Earth’s orbit similar to that of 1862 Apollo",
            "orbit_class_range": "a (semi-major axis) > 1.0 AU; q (perihelion) < 1.017 AU"
        }
    },
    "is_sentry_object": false
}